NORAD_CAT_ID,OBJECT_NAME,OBJECT_TYPE,EPOCH,MEAN_MOTION,ECCENTRICITY,INCLINATION,RA_OF_ASC_NODE,ARG_OF_PERICENTER,MEAN_ANOMALY,BSTAR,MEAN_MOTION_DOT,MEAN_MOTION_DDOT,TLE_LINE0,TLE_LINE1,TLE_LINE2,SEMIMAJOR_AXIS,PERIOD,APOGEE,PERIGEE,DECAYED
53006.0,STARLINK-4290,PAYLOAD,2023-11-26 18:30:18,15.08824729,0.0001227,53.2164,237.7264,104.4338,255.6791,-0.00067317,-0.00010981,0.0,0 STARLINK-4290,1 53006U 22076W   23330.77104260 -.00010981  00000-0 -67317-3 0  9997,2 53006  53.2164 237.7264 0001227 104.4338 255.6791 15.08824729 77424,6917.927,95.439,540.641,538.943,0.0
53006.0,STARLINK-4290,PAYLOAD,2023-11-26 21:41:04,15.08828061,0.0001713,53.2165,237.1314,104.8992,255.219,-0.00040818,-6.776e-05,0.0,0 STARLINK-4290,1 53006U 22076W   23330.90352358 -.00006776  00000-0 -40818-3 0  9999,2 53006  53.2165 237.1314 0001713 104.8992 255.2190 15.08828061 76976,6917.917,95.438,540.967,538.597,0.0
53006.0,STARLINK-4290,PAYLOAD,2023-11-27 00:51:50,15.08829391,0.0001742,53.2162,236.5374,109.1918,250.9263,-0.00014268,-2.557e-05,0.0,0 STARLINK-4290,1 53006U 22076W   23331.03600439 -.00002557  00000-0 -14268-3 0  9993,2 53006  53.2162 236.5374 0001742 109.1918 250.9263 15.08829391 77465,6917.913,95.438,540.983,538.573,0.0
53006.0,STARLINK-4290,PAYLOAD,2023-11-27 21:31:51,15.08843351,0.0001716,53.2156,232.6718,116.5659,243.5509,0.00076078,0.00011842,0.0,0 STARLINK-4290,1 53006U 22076W   23331.89712943  .00011842  00000-0  76078-3 0  9993,2 53006  53.2156 232.6718 0001716 116.5659 243.5509 15.08843351 77128,6917.87,95.437,540.922,538.548,0.0
53006.0,STARLINK-4290,PAYLOAD,2023-11-27 23:07:15,15.0884671,0.0001646,53.2157,232.3748,113.8526,246.2638,0.00083107,0.00012966,0.0,0 STARLINK-4290,1 53006U 22076W   23331.96336903  .00012966  00000-0  83107-3 0  9998,2 53006  53.2157 232.3748 0001646 113.8526 246.2638 15.08846710 77602,6917.86,95.437,540.864,538.586,0.0
53006.0,STARLINK-4290,PAYLOAD,2023-11-28 03:53:24,15.08858032,0.0001731,53.2158,231.4814,117.7548,242.362,0.0010271,0.00016104,0.0,0 STARLINK-4290,1 53006U 22076W   23332.16208579  .00016104  00000-0  10271-2 0  9997,2 53006  53.2158 231.4814 0001731 117.7548 242.3620 15.08858032 77168,6917.825,95.436,540.888,538.493,0.0
53006.0,STARLINK-4290,PAYLOAD,2023-11-28 18:11:52,15.08837707,9.54e-05,53.2149,228.8063,95.7651,264.345,0.00016963,2.413e-05,0.0,0 STARLINK-4290,1 53006U 22076W   23332.75824977  .00002413  00000-0  16963-3 0  9991,2 53006  53.2149 228.8063 0000954  95.7651 264.3450 15.08837707 77723,6917.887,95.438,540.412,539.092,0.0
53006.0,STARLINK-4290,PAYLOAD,2023-11-28 21:22:38,15.08843166,0.0002271,53.2153,228.2074,117.7387,242.3836,1.7386e-05,-1.2e-07,0.0,0 STARLINK-4290,1 53006U 22076W   23332.89072818 -.00000012  00000-0  17386-4 0  9990,2 53006  53.2153 228.2074 0002271 117.7387 242.3836 15.08843166 77279,6917.871,95.437,541.307,538.165,0.0
53006.0,STARLINK-4290,PAYLOAD,2023-11-29 02:08:48,15.08847735,0.0001475,53.2148,227.3193,101.4815,258.6343,0.00039526,6.01e-05,0.0,0 STARLINK-4290,1 53006U 22076W   23333.08944825  .00006010  00000-0  39526-3 0  9990,2 53006  53.2148 227.3193 0001475 101.4815 258.6343 15.08847735 77770,6917.857,95.437,540.742,538.701,0.0
53006.0,STARLINK-4290,PAYLOAD,2023-11-30 00:24:12,15.08846457,0.0001545,53.2152,223.1544,96.5176,263.5992,0.00028057,4.181e-05,0.0,0 STARLINK-4290,1 53006U 22076W   23334.01680812  .00004181  00000-0  28057-3 0  9991,2 53006  53.2152 223.1544 0001545  96.5176 263.5992 15.08846457 77912,6917.861,95.437,540.794,538.657,0.0
53006.0,STARLINK-4290,PAYLOAD,2023-12-01 00:15:00,15.08838596,0.0001525,53.2147,218.6985,89.4179,270.6988,0.00013384,1.843e-05,0.0,0 STARLINK-4290,1 53006U 22076W   23335.01041892  .00001843  00000-0  13384-3 0  9990,2 53006  53.2147 218.6985 0001525  89.4179 270.6988 15.08838596 78062,6917.885,95.438,540.805,538.695,0.0
53006.0,STARLINK-4290,PAYLOAD,2023-12-01 22:30:23,15.08855673,0.0002375,53.2139,214.543,52.8906,307.2303,0.00076742,0.00011952,0.0,0 STARLINK-4290,1 53006U 22076W   23335.93777606  .00011952  00000-0  76742-3 0  9999,2 53006  53.2139 214.5430 0002375  52.8906 307.2303 15.08855673 77735,6917.832,95.437,541.34,538.054,0.0
53006.0,STARLINK-4290,PAYLOAD,2023-12-02 19:10:24,15.08838214,0.0001416,53.2164,210.6666,75.0661,285.0488,-0.00017296,-3.039e-05,0.0,0 STARLINK-4290,1 53006U 22076W   23336.79889176 -.00003039  00000-0 -17296-3 0  9998,2 53006  53.2164 210.6666 0001416  75.0661 285.0488 15.08838214 78337,6917.886,95.438,540.73,538.771,0.0
53006.0,STARLINK-4290,PAYLOAD,2023-12-02 22:21:10,15.08837839,0.000149,53.2151,210.0729,82.4668,277.6494,-0.00017975,-3.147e-05,0.0,0 STARLINK-4290,1 53006U 22076W   23336.93137092 -.00003147  00000-0 -17975-3 0  9991,2 53006  53.2151 210.0729 0001490  82.4668 277.6494 15.08837839 77883,6917.887,95.438,540.783,538.721,0.0
53006.0,STARLINK-4290,PAYLOAD,2023-12-03 01:31:56,15.08839768,0.0001633,53.2157,209.478,73.7877,286.3295,-4.5231e-05,-1.008e-05,0.0,0 STARLINK-4290,1 53006U 22076W   23337.06385186 -.00001008  00000-0 -45231-4 0  9996,2 53006  53.2157 209.4780 0001633  73.7877 286.3295 15.08839768 77904,6917.881,95.438,540.876,538.616,0.0
53006.0,STARLINK-4290,PAYLOAD,2023-12-03 20:36:35,15.08829555,0.0001706,53.215,205.9059,72.6163,287.5015,0.00015776,2.223e-05,0.0,0 STARLINK-4290,1 53006U 22076W   23337.85873935  .00002223  00000-0  15776-3 0  9995,2 53006  53.2150 205.9059 0001706  72.6163 287.5015 15.08829555 78495,6917.912,95.438,540.958,538.597,0.0
53006.0,STARLINK-4290,PAYLOAD,2023-12-04 01:22:44,15.08828061,0.0001637,53.2152,205.015,88.2063,271.9117,0.00031729,4.764e-05,0.0,0 STARLINK-4290,1 53006U 22076W   23338.05746154  .00004764  00000-0  31729-3 0  9998,2 53006  53.2152 205.0150 0001637  88.2063 271.9117 15.08828061 78058,6917.917,95.438,540.914,538.649,0.0
53006.0,STARLINK-4290,PAYLOAD,2023-12-04 15:41:12,15.08846079,0.0001507,53.2153,202.3384,87.2987,272.8177,0.00051857,7.976e-05,0.0,0 STARLINK-4290,1 53006U 22076W   23338.65361972  .00007976  00000-0  51857-3 0  9997,2 53006  53.2153 202.3384 0001507  87.2987 272.8177 15.08846079 78615,6917.862,95.437,540.769,538.684,0.0
53006.0,STARLINK-4290,PAYLOAD,2023-12-05 13:56:36,15.08849896,0.0001373,53.2144,198.1777,84.9371,275.1778,0.00029222,4.367e-05,0.0,0 STARLINK-4290,1 53006U 22076W   23339.58097558  .00004367  00000-0  29222-3 0  9998,2 53006  53.2144 198.1777 0001373  84.9371 275.1778 15.08849896 78281,6917.85,95.437,540.665,538.765,0.0
53006.0,STARLINK-4290,PAYLOAD,2023-12-06 23:19:42,15.08837288,0.0001526,53.2154,191.9338,76.7782,283.338,-2.485e-05,-6.83e-06,0.0,0 STARLINK-4290,1 53006U 22076W   23340.97201820 -.00000683  00000-0 -24850-4 0  9994,2 53006  53.2154 191.9338 0001526  76.7782 283.3380 15.08837288 78968,6917.889,95.438,540.809,538.698,0.0
53006.0,STARLINK-4290,PAYLOAD,2023-12-08 13:28:57,15.08840415,0.0001234,53.2135,184.7947,93.8532,266.2601,0.00012266,1.665e-05,0.0,0 STARLINK-4290,1 53006U 22076W   23342.56177878  .00001665  00000-0  12266-3 0  9992,2 53006  53.2135 184.7947 0001234  93.8532 266.2601 15.08840415 78739,6917.879,95.438,540.598,538.89,0.0
53006.0,STARLINK-4290,PAYLOAD,2023-12-08 15:04:19,15.08862132,7.14e-05,53.2098,184.4945,90.2392,269.8682,7.1658e-05,8.54e-06,0.0,0 STARLINK-4290,1 53006U 22076W   23342.62800820  .00000854  00000-0  71658-4 0  9999,2 53006  53.2098 184.4945 0000714  90.2392 269.8682 15.08862132 79211,6917.813,95.436,540.172,539.184,0.0
53006.0,STARLINK-4290,PAYLOAD,2023-12-08 23:01:16,15.08846038,0.0001415,53.2143,183.0106,92.1565,267.9589,0.00016233,2.297e-05,0.0,0 STARLINK-4290,1 53006U 22076W   23342.95921656  .00002297  00000-0  16233-3 0  9996,2 53006  53.2143 183.0106 0001415  92.1565 267.9589 15.08846038 79265,6917.862,95.437,540.706,538.748,0.0
53006.0,STARLINK-4290,PAYLOAD,2023-12-09 13:19:44,15.08838987,0.0001338,53.2139,180.3368,84.2012,275.9133,5.7924e-05,6.34e-06,0.0,0 STARLINK-4290,1 53006U 22076W   23343.55538010  .00000634  00000-0  57924-4 0  9997,2 53006  53.2139 180.3368 0001338  84.2012 275.9133 15.08838987 78888,6917.883,95.438,540.674,538.823,0.0
53006.0,STARLINK-4290,PAYLOAD,2023-12-09 16:30:31,15.08838239,0.0001295,53.2135,179.7418,82.7841,277.3299,4.6944e-05,4.59e-06,0.0,0 STARLINK-4290,1 53006U 22076W   23343.68786051  .00000459  00000-0  46944-4 0  9996,2 53006  53.2135 179.7418 0001295  82.7841 277.3299 15.08838239 79371,6917.886,95.438,540.647,538.855,0.0
53006.0,STARLINK-4290,PAYLOAD,2023-12-10 13:10:31,15.08843042,0.0001732,53.2141,175.8714,115.7832,244.3339,6.9386e-05,8.16e-06,0.0,0 STARLINK-4290,1 53006U 22076W   23344.54897681  .00000816  00000-0  69386-4 0  9996,2 53006  53.2141 175.8714 0001732 115.7832 244.3339 15.08843042 79037,6917.871,95.437,540.934,538.538,0.0
53006.0,STARLINK-4290,PAYLOAD,2023-12-10 19:32:04,15.08844217,0.0001418,53.2146,174.684,105.3695,254.7454,6.1127e-05,6.85e-06,0.0,0 STARLINK-4290,1 53006U 22076W   23344.81393572  .00000685  00000-0  61127-4 0  9995,2 53006  53.2146 174.6840 0001418 105.3695 254.7454 15.08844217 79546,6917.867,95.437,540.713,538.752,0.0
53006.0,STARLINK-4290,PAYLOAD,2023-12-11 19:22:51,15.08838391,0.0001357,53.2153,170.2237,92.8223,267.2924,5.3325e-05,5.61e-06,0.0,0 STARLINK-4290,1 53006U 22076W   23345.80754035  .00000561  00000-0  53325-4 0  9994,2 53006  53.2153 170.2237 0001357  92.8223 267.2924 15.08838391 79698,6917.885,95.438,540.689,538.812,0.0
53006.0,STARLINK-4290,PAYLOAD,2023-12-12 17:38:15,15.08837366,0.0001472,53.2165,166.0625,102.7491,257.3666,2.3661e-05,8.9e-07,0.0,0 STARLINK-4290,1 53006U 22076W   23346.73490303  .00000089  00000-0  23661-4 0  9997,2 53006  53.2165 166.0625 0001472 102.7491 257.3666 15.08837366 79369,6917.888,95.438,540.772,538.735,0.0
53006.0,STARLINK-4290,PAYLOAD,2023-12-13 17:29:02,15.08837243,0.000142,53.2164,161.5999,101.3467,258.7685,6.9438e-05,8.17e-06,0.0,0 STARLINK-4290,1 53006U 22076W   23347.72850347  .00000817  00000-0  69438-4 0  9996,2 53006  53.2164 161.5999 0001420 101.3467 258.7685 15.08837243 79981,6917.889,95.438,540.736,538.771,0.0
